NORAD_CAT_ID,OBJECT_NAME,OBJECT_TYPE,EPOCH,MEAN_MOTION,ECCENTRICITY,INCLINATION,RA_OF_ASC_NODE,ARG_OF_PERICENTER,MEAN_ANOMALY,BSTAR,MEAN_MOTION_DOT,MEAN_MOTION_DDOT,TLE_LINE0,TLE_LINE1,TLE_LINE2,SEMIMAJOR_AXIS,PERIOD,APOGEE,PERIGEE,DECAYED
51807.0,STARLINK-3606,PAYLOAD,2022-11-11 12:35:58,15.08814622,0.0002705,53.2172,29.7308,25.8717,334.241,-7.974e-05,-1.556e-05,0.0,0 STARLINK-3606,1 51807U 22017AR  22315.52498106 -.00001556  00000-0 -79740-4 0  9991,2 51807  53.2172  29.7308 0002705  25.8717 334.2410 15.08814622 40813,6917.958000000001,95.439,541.694,537.952,0.0
51807.0,STARLINK-3606,PAYLOAD,2022-11-11 17:22:07,15.0882024,0.000271,53.2175,28.839,26.2954,333.8176,3.2937e-05,2.36e-06,0.0,0 STARLINK-3606,1 51807U 22017AR  22315.72370198  .00000236  00000-0  32937-4 0  9992,2 51807  53.2175  28.8390 0002710  26.2954 333.8176 15.08820240 40841,6917.941,95.439,541.681,537.931,0.0
51807.0,STARLINK-3606,PAYLOAD,2022-11-11 22:08:17,15.08831629,0.0002772,53.2193,27.9448,26.9091,333.2045,0.00041712,6.355e-05,0.0,0 STARLINK-3606,1 51807U 22017AR  22315.92242021  .00006355  00000-0  41712-3 0  9995,2 51807  53.2193  27.9448 0002772  26.9091 333.2045 15.08831629 40877,6917.906,95.438,541.689,537.8530000000002,0.0
51807.0,STARLINK-3606,PAYLOAD,2022-11-12 10:51:21,15.08855933,0.0002673,53.2172,25.5687,25.6653,334.4471,0.00093864,0.00014689,0.0,0 STARLINK-3606,1 51807U 22017AR  22316.45233552  .00014689  00000-0  93864-3 0  9997,2 51807  53.2172  25.5687 0002673  25.6653 334.4471 15.08855933 40952,6917.831999999999,95.437,541.5459999999998,537.8480000000002,0.0
51807.0,STARLINK-3606,PAYLOAD,2022-11-12 14:02:08,15.08867034,0.0002743,53.217,24.9748,25.3681,334.7445,0.001124,0.00017659,0.0,0 STARLINK-3606,1 51807U 22017AR  22316.58481508  .00017659  00000-0  11240-2 0  9994,2 51807  53.2170  24.9748 0002743  25.3681 334.7445 15.08867034 40978,6917.7980000000025,95.436,541.56,537.765,0.0
51807.0,STARLINK-3606,PAYLOAD,2022-11-12 17:12:54,15.0886017,0.0002814,53.2169,24.3791,24.2351,335.8773,0.0007218,0.00011225,0.0,0 STARLINK-3606,1 51807U 22017AR  22316.71729485  .00011225  00000-0  72180-3 0  9992,2 51807  53.2169  24.3791 0002814  24.2351 335.8773 15.08860170 40991,6917.819,95.436,541.63,537.737,0.0
51807.0,STARLINK-3606,PAYLOAD,2022-11-13 10:42:07,15.08851738,0.000291,53.2174,21.109,16.0682,344.0402,-0.00030626,-5.161e-05,0.0,0 STARLINK-3606,1 51807U 22017AR  22317.44592469 -.00005161  00000-0 -30626-3 0  9996,2 51807  53.2174  21.1090 0002910  16.0682 344.0402 15.08851738 41102,6917.845,95.437,541.7230000000002,537.696,0.0
51807.0,STARLINK-3606,PAYLOAD,2022-11-13 15:28:17,15.08849208,0.00028,53.2165,20.2157,22.8312,337.2804,-0.00022023,-3.793e-05,0.0,0 STARLINK-3606,1 51807U 22017AR  22317.64464449 -.00003793  00000-0 -22023-3 0  9995,2 51807  53.2165  20.2157 0002800  22.8312 337.2804 15.08849208 41131,6917.852,95.437,541.654,537.78,0.0
51807.0,STARLINK-3606,PAYLOAD,2022-11-14 10:32:55,15.08846854,0.0002881,53.2173,16.6476,22.5419,337.5699,0.00073942,0.00011502,0.0,0 STARLINK-3606,1 51807U 22017AR  22318.43952859  .00011502  00000-0  73942-3 0  9991,2 51807  53.2173  16.6476 0002881  22.5419 337.5699 15.08846854 41259,6917.859,95.437,541.717,537.731,0.0
51807.0,STARLINK-3606,PAYLOAD,2022-11-14 15:19:04,15.08836941,0.0002865,53.2168,15.7555,24.3962,335.7166,0.00010765,1.425e-05,0.0,0 STARLINK-3606,1 51807U 22017AR  22318.63825031  .00001425  00000-0  10765-3 0  9991,2 51807  53.2168  15.7555 0002865  24.3962 335.7166 15.08836941 41284,6917.89,95.438,541.737,537.773,0.0
51807.0,STARLINK-3606,PAYLOAD,2022-11-15 13:34:28,15.08855151,0.0003054,53.2174,11.5921,26.2288,333.8859,0.00061787,9.563e-05,0.0,0 STARLINK-3606,1 51807U 22017AR  22319.56560839  .00009563  00000-0  61787-3 0  9997,2 51807  53.2174  11.5921 0003054  26.2288 333.8859 15.08855151 41423,6917.834,95.437,541.812,537.586,0.0
51807.0,STARLINK-3606,PAYLOAD,2022-11-15 15:09:51,15.08845218,0.0003019,53.2172,11.295,25.1252,334.9886,0.00033043,4.975e-05,0.0,0 STARLINK-3606,1 51807U 22017AR  22319.63185084  .00004975  00000-0  33043-3 0  9996,2 51807  53.2172  11.2950 0003019  25.1252 334.9886 15.08845218 41436,6917.864000000001,95.437,541.818,537.641,0.0
51807.0,STARLINK-3606,PAYLOAD,2022-11-16 08:39:06,15.08844895,0.0002678,53.2176,8.0233,25.4818,334.6306,0.0001617,2.286e-05,0.0,0 STARLINK-3606,1 51807U 22017AR  22320.36048852  .00002286  00000-0  16170-3 0  9994,2 51807  53.2176   8.0233 0002678  25.4818 334.6306 15.08844895 41545,6917.865,95.437,541.5830000000002,537.878,0.0
51807.0,STARLINK-3606,PAYLOAD,2022-11-16 19:46:48,15.08847122,0.0002822,53.2178,5.9429,22.6342,337.4774,0.0001729,2.465e-05,0.0,0 STARLINK-3606,1 51807U 22017AR  22320.82416747  .00002465  00000-0  17290-3 0  9990,2 51807  53.2178   5.9429 0002822  22.6342 337.4774 15.08847122 41616,6917.859,95.437,541.6759999999998,537.771,0.0
51807.0,STARLINK-3606,PAYLOAD,2022-11-17 06:54:30,15.0884082,0.0002925,53.2169,3.8624,24.8592,335.2541,-2.2143e-05,-6.41e-06,0.0,0 STARLINK-3606,1 51807U 22017AR  22321.28784938 -.00000641  00000-0 -22143-4 0  9991,2 51807  53.2169   3.8624 0002925  24.8592 335.2541 15.08840820 41688,6917.878000000002,95.438,541.766,537.719,0.0
51807.0,STARLINK-3606,PAYLOAD,2022-11-17 08:29:53,15.08839694,0.0002886,53.217,3.5648,25.568,334.5454,-2.5836e-05,-7.000000000000003e-06,0.0,0 STARLINK-3606,1 51807U 22017AR  22321.35408973 -.00000700  00000-0 -25836-4 0  9999,2 51807  53.2170   3.5648 0002886  25.5680 334.5454 15.08839694 41698,6917.880999999999,95.438,541.743,537.75,0.0
51807.0,STARLINK-3606,PAYLOAD,2022-11-17 14:51:25,15.08842824,0.0002934,53.2169,2.375,26.061,334.0529,9.7231e-06,-1.34e-06,0.0,0 STARLINK-3606,1 51807U 22017AR  22321.61904912 -.00000134  00000-0  97231-5 0  9991,2 51807  53.2169   2.3750 0002934  26.0610 334.0529 15.08842824 41732,6917.871999999999,95.437,541.766,537.707,0.0
51807.0,STARLINK-3606,PAYLOAD,2022-11-18 11:31:26,15.0883537,0.000301,53.2175,358.509,25.4745,334.6395,4.6884e-05,4.58e-06,0.0,0 STARLINK-3606,1 51807U 22017AR  22322.48017343  .00000458  00000-0  46884-4 0  9995,2 51807  53.2175 358.5090 0003010  25.4745 334.6395 15.08835370 41869,6917.895,95.438,541.842,537.677,0.0
51807.0,STARLINK-3606,PAYLOAD,2022-11-18 19:28:22,15.08842807,0.0003017,53.2175,357.0223,25.4355,334.6785,9.9294e-05,1.292e-05,0.0,0 STARLINK-3606,1 51807U 22017AR  22322.81136956  .00001292  00000-0  99294-4 0  9994,2 51807  53.2175 357.0223 0003017  25.4355 334.6785 15.08842807 41917,6917.871999999999,95.437,541.8240000000002,537.65,0.0
51807.0,STARLINK-3606,PAYLOAD,2022-11-19 01:49:54,15.0884543,0.0003022,53.2175,355.8325,26.1053,334.0091,0.00011764,1.584e-05,0.0,0 STARLINK-3606,1 51807U 22017AR  22323.07632788  .00001584  00000-0  11764-3 0  9996,2 51807  53.2175 355.8325 0003022  26.1053 334.0091 15.08845430 41958,6917.864000000001,95.437,541.819,537.638,0.0
51807.0,STARLINK-3606,PAYLOAD,2022-11-19 09:46:51,15.08836325,0.0002956,53.218,354.3447,27.3542,332.7606,9.7183e-05,1.258e-05,0.0,0 STARLINK-3606,1 51807U 22017AR  22323.40753614  .00001258  00000-0  97183-4 0  9993,2 51807  53.2180 354.3447 0002956  27.3542 332.7606 15.08836325 42001,6917.892,95.438,541.802,537.712,0.0
51807.0,STARLINK-3606,PAYLOAD,2022-11-19 19:19:09,15.08842625,0.0003005,53.218,352.5605,24.734,335.3796,8.9302e-05,1.133e-05,0.0,0 STARLINK-3606,1 51807U 22017AR  22323.80497080  .00001133  00000-0  89302-4 0  9995,2 51807  53.2180 352.5605 0003005  24.7340 335.3796 15.08842625 42065,6917.871999999999,95.437,541.816,537.659,0.0
51807.0,STARLINK-3606,PAYLOAD,2022-11-20 09:37:39,15.08820674,0.0002964,53.218,349.884,27.9618,332.1532,-7.3063e-05,-1.451e-05,0.0,0 STARLINK-3606,1 51807U 22017AR  22324.40115189 -.00001451  00000-0 -73063-4 0  9991,2 51807  53.2180 349.8840 0002964  27.9618 332.1532 15.08820674 42154,6917.939,95.439,541.855,537.754,0.0
51807.0,STARLINK-3606,PAYLOAD,2022-11-20 11:13:02,15.08819472,0.000304,53.218,349.5868,26.6636,333.4512,-8.216799999999999e-05,-1.595e-05,0.0,0 STARLINK-3606,1 51807U 22017AR  22324.46739353 -.00001595  00000-0 -82168-4 0  9997,2 51807  53.2180 349.5868 0003040  26.6636 333.4512 15.08819472 42160,6917.943,95.439,541.911,537.705,0.0
51807.0,STARLINK-3606,PAYLOAD,2022-11-20 19:09:58,15.08818494,0.0003196,53.218,348.1,27.3842,332.7318,-7.1314e-05,-1.423e-05,0.0,0 STARLINK-3606,1 51807U 22017AR  22324.79859754 -.00001423  00000-0 -71314-4 0  9992,2 51807  53.2180 348.1000 0003196  27.3842 332.7318 15.08818494 42217,6917.946,95.439,542.0219999999998,537.6,0.0
51807.0,STARLINK-3606,PAYLOAD,2022-11-21 01:31:30,15.08833549,0.0003112,53.218,346.9107,26.7917,333.3236,-0.00015829,-2.807e-05,0.0,0 STARLINK-3606,1 51807U 22017AR  22325.06355238 -.00002807  00000-0 -15829-3 0  9996,2 51807  53.2180 346.9107 0003112  26.7917 333.3236 15.08833549 42253,6917.9,95.438,541.918,537.612,0.0
51807.0,STARLINK-3606,PAYLOAD,2022-11-21 07:53:03,15.08836842,0.0003115,53.2179,345.7214,27.6448,332.471,-0.00010085,-1.893e-05,0.0,0 STARLINK-3606,1 51807U 22017AR  22325.32850982 -.00001893  00000-0 -10085-3 0  9994,2 51807  53.2179 345.7214 0003115  27.6448 332.4710 15.08836842 42299,6917.89,95.438,541.91,537.6,0.0
51807.0,STARLINK-3606,PAYLOAD,2022-11-21 12:39:12,15.08831241,0.0003154,53.218,344.8293,29.2938,330.8231,5.2928e-05,5.54e-06,0.0,0 STARLINK-3606,1 51807U 22017AR  22325.52723124  .00000554  00000-0  52928-4 0  9997,2 51807  53.2180 344.8293 0003154  29.2938 330.8231 15.08831241 42325,6917.906999999997,95.438,541.9540000000002,537.59,0.0
51807.0,STARLINK-3606,PAYLOAD,2022-11-22 07:43:49,15.08836035,0.0003221,53.2179,341.2612,30.6604,329.4576,0.00025376,3.752e-05,0.0,0 STARLINK-3606,1 51807U 22017AR  22326.32210490  .00003752  00000-0  25376-3 0  9992,2 51807  53.2179 341.2612 0003221  30.6604 329.4576 15.08836035 42445,6917.893,95.438,541.986,537.529,0.0
